OBJECT_NAME,OBJECT_ID,EPOCH,MEAN_MOTION,ECCENTRICITY,INCLINATION,RA_OF_ASC_NODE,ARG_OF_PERICENTER,MEAN_ANOMALY,EPHEMERIS_TYPE,CLASSIFICATION_TYPE,NORAD_CAT_ID,ELEMENT_SET_NO,REV_AT_EPOCH,BSTAR,MEAN_MOTION_DOT,MEAN_MOTION_DDOT
SITRO-AIS 6 (CHIRKIN),2023-091AC,2026-07-16T14:49:49.335168,15.26452912,.00110234,97.5051,260.7685,11.6564,348.4927,0,U,57192,999,16877,.20002405E-3,.5146E-4,0
SITRO-AIS 8 (ANOKHIN),2023-091AD,2026-07-16T14:23:55.260960,15.32880893,.00093617,97.5039,263.5011,3.1138,357.0160,0,U,57193,999,16895,.2629849E-3,.8282E-4,0
SITRO-AIS 7 (FARTUSHNIY),2023-091AE,2026-07-16T15:03:12.650400,15.26126516,.00109913,97.5046,260.5872,12.8396,347.3120,0,U,57194,999,16876,.19488309E-3,.4963E-4,0
AVION KALUGA 650,2023-091AF,2026-07-16T13:53:49.331616,15.20640424,.00103185,97.5073,257.0394,17.9559,342.2039,0,U,57195,999,16849,.13492631E-3,.2893E-4,0
HORS 2,2023-091AG,2026-07-16T14:48:16.552800,15.32583294,.00066951,97.5073,265.0601,349.8284,10.2821,0,U,57196,999,16903,.23454683E-3,.7304E-4,0
A-SEANSAT-PG1,2023-091AH,2026-07-16T14:59:24.371232,15.37913903,.00055343,97.5065,267.8527,343.5527,16.5537,0,U,57197,999,16923,.28204403E-3,.10436E-3,0
SITRO-AIS 10 (BURDAEV),2023-091AK,2026-07-16T13:40:36.128640,15.39659558,.00047388,97.5065,268.8352,335.2812,24.8206,0,U,57199,999,16928,.29303923E-3,.11483E-3,0
SITRO-AIS 9 (SHCHUKIN),2023-091AM,2026-07-16T14:32:26.220192,15.39144857,.00050132,97.5063,268.5785,335.5800,24.5207,0,U,57201,999,16927,.30277047E-3,.11669E-3,0
UTMN 2 (RS27S),2023-091AP,2026-07-16T12:15:19.049760,15.32720728,.00065801,97.5071,265.1498,345.0643,15.0403,0,U,57203,999,16903,.22492825E-3,.7031E-4,0
SITRO-AIS 12 (SMIRENNIY),2023-091AQ,2026-07-16T14:10:51.441888,15.39440340,.00045831,97.5077,269.0487,327.7176,32.3788,0,U,57204,999,16929,.28197726E-3,.10966E-3,0
SITRO-AIS 11 (SHEFFER),2023-091AU,2026-07-16T14:18:13.567104,15.39884597,.00044846,97.5075,269.3195,327.0851,33.0115,0,U,57208,999,16931,.29151371E-3,.11507E-3,0
H2SAT (HEINRICH HERTZ),2023-093A,2026-07-16T03:03:35.224992,1.00270533,.00004432,0.0260,98.8694,46.5275,195.1428,0,U,57213,999,1120,0,-.9E-7,0
KUZGTU 1 (RS47S),2023-091AV,2026-07-16T14:12:17.777088,15.30489006,.00099411,97.5047,262.3820,1.2666,358.8598,0,U,57217,999,16887,.23086321E-3,.6736E-4,0
QIANKUN-1,2023-103B,2026-07-16T14:42:06.791904,16.07858994,.00355894,96.1400,240.3808,130.8922,229.5456,0,U,57422,999,17202,.7537117E-5,.6165E-4,.1655238E-5
FENGYUN 3F,2023-111A,2026-07-16T15:21:40.707072,14.19943571,.00012466,98.6824,267.0982,76.0635,284.0681,0,U,57490,999,15304,.27664543E-4,.15E-6,0
HJ-2F,2023-116A,2026-07-16T15:07:42.442176,15.22706216,.00064852,97.3847,202.3448,306.4588,53.6050,0,U,57519,999,16323,.17641543E-3,.4044E-4,0
XRISM,2023-137A,2026-07-16T08:35:39.285312,15.12673704,.00078808,31.0009,170.6085,257.7036,102.2721,0,U,57800,999,15728,.10934713E-3,.206E-4,0
METEOR-M2 4,2024-039A,2026-07-16T15:45:39.649824,14.22432221,.00082622,98.7026,156.5870,85.1519,275.0602,0,U,59051,999,12345,.11947055E-4,-.17E-6,0
GRBBETA,2024-128C,2026-07-16T08:29:43.636128,15.06812637,.00368971,61.9898,113.9204,140.9185,219.4584,0,U,60237,999,11066,.12123355E-3,.1619E-4,0
TRANSPORTER-11 OBJECT A,2024-149A,2026-07-16T12:34:32.544192,15.33352457,.00049414,97.3727,277.3700,113.5954,246.5808,0,U,60468,999,10655,.15152795E-3,.4806E-4,0
WARATAH SEED-1,2024-149B,2026-07-16T11:40:10.327296,15.36637485,.00032498,97.3685,278.1013,118.7749,241.3822,0,U,60469,999,10661,.2018407E-3,.714E-4,0
PHISAT 2,2024-149C,2026-07-16T04:37:18.155136,15.31434310,.00032288,97.3753,276.2533,122.7172,237.4381,0,U,60470,999,10643,.15022092E-3,.4483E-4,0
LEMUR-2-TOMATOKECHUP,2024-149D,2026-07-16T11:34:09.059520,15.36597838,.00033482,97.3796,279.6140,120.3105,239.8471,0,U,60471,999,10666,.16419132E-3,.5784E-4,0
CONNECTA IOT-1,2024-149E,2026-07-16T12:25:37.862976,15.23747471,.00029032,97.3751,273.3162,139.6187,220.5266,0,U,60472,999,10626,.87623201E-4,.2036E-4,0
LOPEN,2024-149F,2026-07-16T04:09:35.045856,15.40480981,.00028775,97.3776,280.7829,132.6009,227.5480,0,U,60473,999,10672,.21332842E-3,.8563E-4,0
ROCK,2024-149G,2026-07-16T11:38:11.362272,15.40474107,.00032154,97.3771,281.1111,130.0609,230.0920,0,U,60474,999,10677,.21189288E-3,.8503E-4,0
CONNECTA IOT-3,2024-149H,2026-07-16T05:03:14.505984,15.23759603,.00039922,97.3727,272.7582,140.4053,219.7477,0,U,60475,999,10622,.89518215E-4,.2082E-4,0
QUBE,2024-149J,2026-07-16T04:47:34.635552,15.48534080,.00033162,97.3777,284.2199,126.5877,233.5680,0,U,60476,999,10695,.26726397E-3,.14144E-3,0
WREN-1,2024-149L,2026-07-16T04:53:55.806432,15.42650772,.00053592,97.3765,281.6433,147.6994,212.4583,0,U,60478,999,10679,.25624534E-3,.11082E-3,0
