SITRO-AIS 6 (CHIRKIN)   
1 57192U 23091AC  26197.61793212  .00005146  00000+0  20002-3 0  9997
2 57192  97.5051 260.7685 0011023  11.6564 348.4927 15.26452912168770
SITRO-AIS 8 (ANOKHIN)   
1 57193U 23091AD  26197.59994515  .00008282  00000+0  26298-3 0  9991
2 57193  97.5039 263.5011 0009361   3.1138 357.0160 15.32880893168951
SITRO-AIS 7 (FARTUSHNIY)
1 57194U 23091AE  26197.62722975  .00004963  00000+0  19488-3 0  9990
2 57194  97.5046 260.5872 0010991  12.8396 347.3120 15.26126516168761
AVION KALUGA 650        
1 57195U 23091AF  26197.57904319  .00002893  00000+0  13493-3 0  9999
2 57195  97.5073 257.0394 0010318  17.9559 342.2039 15.20640424168498
HORS 2                  
1 57196U 23091AG  26197.61685825  .00007304  00000+0  23455-3 0  9994
2 57196  97.5073 265.0601 0006695 349.8284  10.2821 15.32583294169030
A-SEANSAT-PG1           
1 57197U 23091AH  26197.62458763  .00010436  00000+0  28204-3 0  9992
2 57197  97.5065 267.8527 0005534 343.5527  16.5537 15.37913903169235
SITRO-AIS 10 (BURDAEV)  
1 57199U 23091AK  26197.56986260  .00011483  00000+0  29304-3 0  9990
2 57199  97.5065 268.8352 0004738 335.2812  24.8206 15.39659558169289
SITRO-AIS 9 (SHCHUKIN)  
1 57201U 23091AM  26197.60585903  .00011669  00000+0  30277-3 0  9995
2 57201  97.5063 268.5785 0005013 335.5800  24.5207 15.39144857169273
UTMN 2 (RS27S)          
1 57203U 23091AP  26197.51063715  .00007031  00000+0  22493-3 0  9998
2 57203  97.5071 265.1498 0006580 345.0643  15.0403 15.32720728169036
SITRO-AIS 12 (SMIRENNIY)
1 57204U 23091AQ  26197.59087317  .00010966  00000+0  28198-3 0  9990
2 57204  97.5077 269.0487 0004583 327.7176  32.3788 15.39440340169295
SITRO-AIS 11 (SHEFFER)  
1 57208U 23091AU  26197.59599036  .00011507  00000+0  29151-3 0  9992
2 57208  97.5075 269.3195 0004484 327.0851  33.0115 15.39884597169310
H2SAT (HEINRICH HERTZ)  
1 57213U 23093A   26197.12749103 -.00000009  00000+0  00000+0 0  9995
2 57213   0.0260  98.8694 0000443  46.5275 195.1428  1.00270533 11207
KUZGTU 1 (RS47S)        
1 57217U 23091AV  26197.59187242  .00006736  00000+0  23086-3 0  9993
2 57217  97.5047 262.3820 0009941   1.2666 358.8598 15.30489006168875
QIANKUN-1               
1 57422U 23103B   26197.61257861  .00006165  16552-5  75371-5 0  9990
2 57422  96.1400 240.3808 0035589 130.8922 229.5456 16.07858994172024
FENGYUN 3F              
1 57490U 23111A   26197.64005448  .00000015  00000+0  27665-4 0  9994
2 57490  98.6824 267.0982 0001246  76.0635 284.0681 14.19943571153044
HJ-2F                   
1 57519U 23116A   26197.63035234  .00004044  00000+0  17642-3 0  9995
2 57519  97.3847 202.3448 0006485 306.4588  53.6050 15.22706216163233
XRISM                   
1 57800U 23137A   26197.35809358  .00002060  00000+0  10935-3 0  9990
2 57800  31.0009 170.6085 0007880 257.7036 102.2721 15.12673704157289
METEOR-M2 4             
1 59051U 24039A   26197.65670891 -.00000017  00000+0  11947-4 0  9999
2 59051  98.7026 156.5870 0008262  85.1519 275.0602 14.22432221123453
GRBBETA                 
1 60237U 24128C   26197.35397727  .00001619  00000+0  12123-3 0  9991
2 60237  61.9898 113.9204 0036897 140.9185 219.4584 15.06812637110668
TRANSPORTER-11 OBJECT A 
1 60468U 24149A   26197.52398778  .00004806  00000+0  15153-3 0  9993
2 60468  97.3727 277.3700 0004941 113.5954 246.5808 15.33352457106551
WARATAH SEED-1          
1 60469U 24149B   26197.48623064  .00007140  00000+0  20184-3 0  9992
2 60469  97.3685 278.1013 0003249 118.7749 241.3822 15.36637485106616
PHISAT 2                
1 60470U 24149C   26197.19257124  .00004483  00000+0  15022-3 0  9994
2 60470  97.3753 276.2533 0003228 122.7172 237.4381 15.31434310106435
LEMUR-2-TOMATOKECHUP    
1 60471U 24149D   26197.48204930  .00005784  00000+0  16419-3 0  9990
2 60471  97.3796 279.6140 0003348 120.3105 239.8471 15.36597838106668
CONNECTA IOT-1          
1 60472U 24149E   26197.51779934  .00002036  00000+0  87623-4 0  9999
2 60472  97.3751 273.3162 0002903 139.6187 220.5266 15.23747471106265
LOPEN                   
1 60473U 24149F   26197.17332229  .00008563  00000+0  21333-3 0  9990
2 60473  97.3776 280.7829 0002877 132.6009 227.5480 15.40480981106726
ROCK                    
1 60474U 24149G   26197.48485373  .00008503  00000+0  21189-3 0  9997
2 60474  97.3771 281.1111 0003215 130.0609 230.0920 15.40474107106772
CONNECTA IOT-3          
1 60475U 24149H   26197.21058456  .00002082  00000+0  89518-4 0  9994
2 60475  97.3727 272.7582 0003992 140.4053 219.7477 15.23759603106221
QUBE                    
1 60476U 24149J   26197.19970643  .00014144  00000+0  26726-3 0  9996
2 60476  97.3777 284.2199 0003316 126.5877 233.5680 15.48534080106955
WREN-1                  
1 60478U 24149L   26197.20411813  .00011082  00000+0  25625-3 0  9994
2 60478  97.3765 281.6433 0005359 147.6994 212.4583 15.42650772106790
